STARLINK-30579          
1 58061C 23158L   26099.71229167  .00069533  00000+0  25172-2 0   995
2 58061  42.9995 186.0488 0001309 268.1581 329.3376 15.27560849    10
STARLINK-30588          
1 58062C 23158M   26099.69701389 -.00040861  00000+0 -14809-2 0   994
2 58062  43.0024 211.9021 0001438 285.9975  32.8260 15.27577883    18
STARLINK-30585          
1 58063C 23158N   26099.66159722  .00043246  00000+0  15661-2 0   995
2 58063  43.0024 212.2021 0001518 266.5726 174.7741 15.27561811    15
STARLINK-30587          
1 58064C 23158P   26099.72479167 -.00028255  00000+0 -10239-2 0   992
2 58064  43.0023 211.5183 0001375 281.5198 289.2824 15.27575457    12
STARLINK-30576          
1 58065C 23158Q   26099.69076389  .00060380  00000+0  21867-2 0   990
2 58065  43.0030 211.9604 0001727 267.4076   9.8904 15.27551778    17
STARLINK-30571          
1 58066C 23158R   26099.71576389  .00069078  00000+0  25008-2 0   993
2 58066  43.0014 212.0264 0001382 270.3175  52.6661 15.27559992    16
STARLINK-30567          
1 58067C 23158S   26099.66437500 -.00051013  00000+0 -18485-2 0   992
2 58067  42.9997 212.4098 0001318 270.6225  87.0124 15.27588652    13
STARLINK-30569          
1 58068C 23158T   26099.72270833  .00070407  00000+0  26155-2 0   993
2 58068  43.0014 215.1260 0001420 276.3519 198.9980 15.26711644    10
STARLINK-30480          
1 58069C 23158U   26099.65465278 -.00049057  00000+0 -17763-2 0   999
2 58069  43.0041  69.9533 0001313 254.0636 221.5876 15.27612581    11
STARLINK-30532          
1 58070C 23158V   26099.68937500 -.00032398  00000+0 -11743-2 0   998
2 58070  43.0025 211.9932 0001419 281.4863 334.0520 15.27571788    19
STARLINK-30506          
1 58072C 23158X   26099.64076389 -.00084326  00000+0 -30557-2 0   997
2 58072  43.0018 212.3924 0001494 278.4323  12.8600 15.27605307    14
STARLINK-30604          
1 58075C 23160A   26099.69979167 -.00011917  00000+0 -43205-3 0   995
2 58075  43.0015 262.5949 0001995 270.2693 331.9066 15.27552597    17
STARLINK-30500          
1 58076C 23160B   26099.68729167 -.00115620  00000+0 -41869-2 0   997
2 58076  43.0010 262.8185 0001581 271.6627 190.9285 15.27642428    10
STARLINK-30613          
1 58077C 23160C   26099.68312500 -.00050374  00000+0 -18256-2 0   995
2 58077  43.0014 262.7693 0001960 266.9787 208.0732 15.27583528    16
STARLINK-30597          
1 58078C 23160D   26099.67270833 -.00005084  00000+0 -18416-3 0   994
2 58078  43.0028 262.6319 0002071 268.9644 226.5454 15.27575388    15
STARLINK-30598          
1 58079C 23160E   26099.74284722  .00061418  00000+0  22262-2 0   999
2 58079  43.0010 262.4806 0001405 264.6923 157.8202 15.27523829    19
STARLINK-30603          
1 58080C 23160F   26099.68173611 -.00066305  00000+0 -24010-2 0   993
2 58080  43.0011 262.8740 0001432 267.5306 157.3479 15.27618597    18
STARLINK-30602          
1 58081C 23160G   26099.65951389 -.00014464  00000+0 -58549-3 0   991
2 58081  43.0005 264.4016 0001384 280.7270 149.2592 15.23899676    10
STARLINK-30610          
1 58082C 23160H   26099.71090278  .00001357  00000+0  50413-4 0   998
2 58082  43.0008 262.9501 0001401 265.2268 218.7460 15.26741664    13
STARLINK-30551          
1 58083C 23160J   26099.73590278 -.00088268  00000+0 -31980-2 0   990
2 58083  43.0007 265.9199 0001626 275.0683 112.0381 15.27612177    13
STARLINK-30586          
1 58084C 23160K   26099.67965278 -.00050624  00000+0 -18334-2 0   993
2 58084  43.0002 266.2856 0001549 272.9132 143.2425 15.27606415    15
STARLINK-30609          
1 58085C 23160L   26099.68173611 -.00009734  00000+0 -36163-3 0   994
2 58085  43.0018 266.2256 0001965 268.7727 180.0659 15.26747123    11
STARLINK-30583          
1 58086C 23160M   26099.73173611  .00001650  00000+0  61301-4 0   991
2 58086  43.0008 265.9794 0001778 266.7235  81.3944 15.26745569    10
STARLINK-30557          
1 58087C 23160N   26099.72479167  .00006854  00000+0  24848-3 0   991
2 58087  43.0007 266.1775 0001357 261.1458 339.9078 15.27544483    14
STARLINK-30591          
1 58088C 23160P   26099.70951389  .00000376  00000+0  13628-4 0   999
2 58088  43.0032 262.3996 0001754 261.8106  90.4862 15.27572037    10
STARLINK-30584          
1 58089C 23160Q   26099.71368056 -.00044771  00000+0 -16217-2 0   998
2 58089  43.0015 262.5549 0001757 274.1956  23.1991 15.27598401    10
STARLINK-30590          
1 58090C 23160R   26099.69423611 -.00053174  00000+0 -19261-2 0   995
2 58090  42.9985 266.4129 0001234 276.7086 127.8012 15.27602834    17
STARLINK-30608          
1 58091C 23160S   26099.72131944  .00006441  00000+0  23934-3 0   991
2 58091  43.0004 262.6348 0001526 260.2614  27.7703 15.26732962    12
STARLINK-30615          
1 58092C 23160T   26099.72548611  .00005466  00000+0  20313-3 0   999
2 58092  43.0028 263.0435 0001530 275.7064 215.5586 15.26732979    10
STARLINK-30578          
1 58093C 23160U   26099.75048611 -.00074261  00000+0 -26900-2 0   996
2 58093  43.0016 262.3235 0001644 269.0662 238.0734 15.27611579    12
STARLINK-30574          
1 58094C 23160V   26099.69284722 -.00072487  00000+0 -26252-2 0   993
2 58094  43.0014 262.6045 0002796 278.9228 292.0898 15.27615277    19
STARLINK-30570          
1 58095C 23160W   26099.67340278 -.00008805  00000+0 -31883-3 0   991
2 58095  43.0007 262.8487 0001318 263.4333 143.8247 15.27592261    17
STARLINK-30581          
1 58096C 23160X   26099.65465278 -.00004181  00000+0 -15141-3 0   990
2 58096  43.0007 263.1000 0001473 262.6449 337.8285 15.27586330    11
STARLINK-30594          
1 58097C 23161A   26099.72548611 -.00006873  00000+0 -23182-3 0   997
2 58097  53.1597  21.3444 0001158  90.8532 275.1378 15.30169177    15
STARLINK-30614          
1 58098C 23161B   26099.70673611  .00031074  00000+0  10469-2 0   997
2 58098  53.1599  21.3958 0001182  88.8394 191.1523 15.30189896    17
STARLINK-30607          
1 58099C 23161C   26099.66576389  .00035392  00000+0  11929-2 0   996
2 58099  53.1591  11.6235 0001281 101.6287 294.6813 15.30171847    13
STARLINK-30600          
1 58100C 23161D   26099.67201389  .00034811  00000+0  11735-2 0   995
2 58100  53.1594  21.6510 0001141  86.0479 310.2654 15.30168014    10
STARLINK-30605          
1 58101C 23161E   26099.65326389  .00031610  00000+0  10656-2 0   997
2 58101  53.1601  21.5972 0001257  88.1424 280.4254 15.30170337    17
STARLINK-30592          
1 58102C 23161F   26099.70118056  .00069784  00000+0  23494-2 0   991
2 58102  53.1606  21.3399 0001299 101.7971 188.2245 15.30192170    13
STARLINK-30589          
1 58103C 23161G   26099.72618056  .00030225  00000+0  10188-2 0   993
2 58103  53.1593  21.4606 0001184  85.4763 121.5884 15.30173538    17
STARLINK-30617          
1 58104C 23161H   26099.70673611  .00049413  00000+0  16648-2 0   996
2 58104  53.1598  21.5870 0001254  91.6276 350.8130 15.30178731    14
STARLINK-30616          
1 58105C 23161J   26099.72548611  .00041179  00000+0  13879-2 0   994
2 58105  53.1589   8.2701 0001129 100.9009 326.3886 15.30171383    11
STARLINK-30612          
1 58106C 23161K   26099.74145833  .00032956  00000+0  11107-2 0   991
2 58106  53.1598   8.2892 0001242  95.3912  19.2035 15.30174969    16
STARLINK-30421          
1 58107C 23161L   26099.64701389  .00023234  00000+0  78322-3 0   997
2 58107  53.1598   8.7510 0001469  85.9408 199.0495 15.30174360    17
STARLINK-30611          
1 58108C 23161M   26099.69979167  .00041467  00000+0  13992-2 0   993
2 58108  53.1605   8.7142 0001312  83.5592  16.1075 15.30132374    15
STARLINK-30606          
1 58109C 23161N   26099.64493056  .00009809  00000+0  33060-3 0   990
2 58109  53.1593  21.7489 0001059  88.3328 176.1416 15.30186856    19
STARLINK-30596          
1 58110C 23161P   26099.69909722  .00045935  00000+0  15484-2 0   998
2 58110  53.1607  21.2454 0001318  98.3806 232.6080 15.30163173    16
STARLINK-30595          
1 58111C 23161Q   26099.66715278  .00082297  00000+0  27781-2 0   992
2 58111  53.1588  21.7858 0001217  98.5783 218.5778 15.30099121    10
STARLINK-30593          
1 58112C 23161R   26099.70534722  .00030831  00000+0  10393-2 0   999
2 58112  53.1588  21.5708 0001069  91.6639  93.4693 15.30170680    18
STARLINK-30353          
1 58113C 23161S   26099.67270833  .00042909  00000+0  14463-2 0   997
2 58113  53.1587  21.8273 0001241  97.1092 215.7723 15.30167552    11
STARLINK-30572          
1 58114C 23161T   26099.74979167  .00046213  00000+0  15575-2 0   999
2 58114  53.1592  21.3291 0001245  93.0554 354.4904 15.30168409    19
STARLINK-30580          
1 58115C 23161U   26099.69215278  .00034236  00000+0  11542-2 0   992
2 58115  53.1606  21.2925 0001434  89.2900 185.9969 15.30165989    19
STARLINK-30493          
1 58116C 23161V   26099.72895833  .00036046  00000+0  12150-2 0   995
2 58116  53.1588  21.5314 0001184  92.8343 187.5348 15.30171557    14
STARLINK-30601          
1 58117C 23161W   26099.69770833  .00067924  00000+0  22889-2 0   993
2 58117  53.1589  21.7432 0001219  99.8102 333.3594 15.30163090    15
STARLINK-30795          
1 58118C 23162A   26099.71854167 -.00027516  00000+0 -99633-3 0   998
2 58118  43.0012 316.8587 0001327 260.4521 228.4044 15.27601688    15
STARLINK-30765          
1 58119C 23162B   26099.71993056 -.00010946  00000+0 -40645-3 0   998
2 58119  43.0012 316.9393 0001401 273.7952 179.1672 15.26766690    13
STARLINK-30768          
1 58120C 23162C   26099.71437500 -.00025623  00000+0 -95165-3 0   992
2 58120  43.0012 316.8790 0001547 262.9720 204.3677 15.26766001    11
STARLINK-30799          
1 58121C 23162D   26099.67618056  .00000192  00000+0  71310-5 0   995
2 58121  43.0028 317.3381 0001739 262.1738 248.6325 15.26744727    17
STARLINK-30759          
1 58122C 23162E   26099.72409722 -.00012782  00000+0 -47498-3 0   998
2 58122  43.0013 316.9020 0001441 254.6007 232.3347 15.26744052    17
